STARLINK-32765          
1 62747U 25014N   25175.00238015  .00020328  00000+0  74594-3 0  9993
2 62747  43.0035 175.3920 0001752 274.7501  85.3151 15.27591609 23699
STARLINK-32762          
1 62748U 25014P   25175.11210085  .00004769  00000+0  18280-3 0  9994
2 62748  42.9997 177.9568 0000961 277.9000  82.1742 15.27565307 23676
STARLINK-32761          
1 62749U 25014Q   25175.04930080 -.00002771  00000+0 -91268-4 0  9992
2 62749  43.0018 178.3477 0001419 269.5912  90.4777 15.27555735 23668
STARLINK-32763          
1 62750U 25014R   25175.30489818  .00006498  00000+0  24547-3 0  9994
2 62750  43.0000 173.3579 0001374 268.7326  91.3368 15.27578469 23743
STARLINK-32759          
1 62751U 25014S   25175.34296627  .00007447  00000+0  27989-3 0  9991
2 62751  42.9990 177.1118 0001491 269.5797  90.4884 15.27578384 23707
STARLINK-32756          
1 62752U 25014T   25175.02679506  .00013938  00000+0  51502-3 0  9998
2 62752  42.9987 175.5740 0001048 262.5717  97.5016 15.27581516 23694
STARLINK-32751          
1 62753U 25014U   25174.69343983  .00009827  00000+0  36619-3 0  9992
2 62753  42.9977 177.3692 0001143 264.4934  95.5787 15.27576625 23641
STARLINK-32740          
1 62754U 25014V   25175.01112311  .00015801  00000+0  56780-3 0  9999
2 62754  42.9995 175.4611 0001452 282.9337  77.1353 15.28420464 23697
STARLINK-32745          
1 62755U 25014W   25175.07418271  .00011982  00000+0  44430-3 0  9995
2 62755  42.9982 175.0625 0001298 241.7824 118.2896 15.27574240 23709
STARLINK-33596          
1 62758U 25015A   25175.47695463  .00019550  00000+0  67056-3 0  9991
2 62758  53.1602  82.1137 0001423  78.9093 281.2068 15.30194931 24879
STARLINK-33589          
1 62759U 25015B   25175.21360581  .00014447  00000+0  49927-3 0  9991
2 62759  53.1601  83.3161 0000968 111.5744 248.5360 15.30178470 24836
STARLINK-33575          
1 62760U 25015C   25175.45795042  .00011353  00000+0  39489-3 0  9998
2 62760  53.1591  81.9687 0000692 273.8242  86.2680 15.30196934 24884
STARLINK-33584          
1 62761U 25015D   25175.18297568  .00014788  00000+0  51020-3 0  9999
2 62761  53.1587  83.1248 0000453 114.7320 245.3728 15.30212960 24904
STARLINK-33577          
1 62762U 25015E   25175.16292815  .00010253  00000+0  35788-3 0  9994
2 62762  53.1589  82.9948 0001416  87.4698 272.6464 15.30195545 24892
STARLINK-33597          
1 62763U 25015F   25175.15354372  .00024617  00000+0  84023-3 0  9996
2 62763  53.1592  83.6488 0000905  80.7665 279.3438 15.30210866 24884
STARLINK-33579          
1 62764U 25015G   25175.02702345  .00020467  00000+0  70088-3 0  9995
2 62764  53.1587  83.5723 0002492  94.0814 266.0471 15.30216022 24876
STARLINK-33592          
1 62765U 25015H   25175.46111778  .00016164  00000+0  55632-3 0  9995
2 62765  53.1593  82.0089 0000608 243.2177 116.8762 15.30220284 24814
STARLINK-33595          
1 62766U 25015J   25174.45607572  .00008891  00000+0  31196-3 0  9993
2 62766  53.1585  86.4059 0001050  87.3905 272.7216 15.30197818 24798
STARLINK-33572          
1 62767U 25015K   25175.12505549  .00015016  00000+0  51806-3 0  9997
2 62767  53.1594  83.4711 0002183  89.0249 271.1002 15.30202181 24830
STARLINK-33601          
1 62768U 25015L   25175.11871674  .00017485  00000+0  60101-3 0  9992
2 62768  53.1584  83.4310 0000455 111.4972 248.6078 15.30203905 24880
STARLINK-33569          
1 62769U 25015M   25175.16714957  .00009865  00000+0  34474-3 0  9995
2 62769  53.1580  83.0213 0001024  59.6699 300.4403 15.30199503 24895
STARLINK-33594          
1 62770U 25015N   25175.15977823  .00012727  00000+0  44096-3 0  9991
2 62770  53.1593  82.9771 0004847  63.9377 296.2122 15.30204341 24892
STARLINK-33598          
1 62771U 25015P   25175.03863007  .00018625  00000+0  63941-3 0  9990
2 62771  53.1578  83.6393 0000505  22.9592 337.1431 15.30198654 24870
STARLINK-33600          
1 62772U 25015Q   25175.14404729  .00011696  00000+0  40638-3 0  9994
2 62772  53.1599  83.5863 0001567 102.9273 257.1902 15.30202397 24895
STARLINK-33567          
1 62773U 25015R   25175.44216162  .00009501  00000+0  33320-3 0  9992
2 62773  53.1586  81.8905 0001158  59.9533 300.1582 15.30131704 24937
STARLINK-33574          
1 62774U 25015S   25175.43474613  .00020477  00000+0  70184-3 0  9993
2 62774  53.1578  81.8504 0001104  76.7904 283.3220 15.30187548 24516
STARLINK-33576          
1 62775U 25015T   25175.46006824  .00013178  00000+0  45630-3 0  9990
2 62775  53.1602  82.0079 0001264  70.6365 289.4772 15.30197870 24884
STARLINK-33570          
1 62776U 25015U   25175.04179697  .00022186  00000+0  75898-3 0  9992
2 62776  53.1582  83.6587 0001001  59.6580 300.4520 15.30198709 24829
STARLINK-33591          
1 62777U 25015V   25175.45690228  .00010638  00000+0  37082-3 0  9998
2 62777  53.1595  81.9857 0001242  89.0309 271.0834 15.30195712 24932
STARLINK-33573          
1 62778U 25015W   25175.16609518  .00012379  00000+0  42946-3 0  9998
2 62778  53.1580  83.0112 0000905  79.6860 280.4243 15.30194055 24898
STARLINK-33568          
1 62779U 25015X   25174.47085053  .00006659  00000+0  23677-3 0  9998
2 62779  53.1591  86.4974 0001507  88.1081 272.0092 15.30198579 24639
STARLINK-33593          
1 62780U 25015Y   25175.03968554  .00014552  00000+0  50269-3 0  9997
2 62780  53.1560  83.6453 0000752 321.8834  38.2113 15.30186513 24879
STARLINK-33588          
1 62781U 25015Z   25175.12557524  .00014573  00000+0  50319-3 0  9998
2 62781  53.1583  81.2813 0002941  85.9226 274.2110 15.30198582 24917
STARLINK-33585          
1 62782U 25015AA  25175.15660096  .00019029  00000+0  65278-3 0  9992
2 62782  53.1590  82.9561 0002135  71.5593 288.5640 15.30208365 24622
STARLINK-33582          
1 62783U 25015AB  25175.44107213  .00009976  00000+0  34852-3 0  9996
2 62783  53.1576  81.8850 0001309  81.4816 278.6333 15.30196308 24886
STARLINK-33581          
1 62784U 25015AC  25175.14510202  .00014464  00000+0  49970-3 0  9995
2 62784  53.1596  83.5936 0001175  60.9701 299.1417 15.30188312 24886
STARLINK-32883          
1 62806U 25018A   25175.00438000  .00012094  00000+0  41999-3 0  9993
2 62806  53.1584  71.0900 0003031 298.0026  62.0668 15.30184181 24209
STARLINK-32886          
1 62807U 25018B   25175.00331600  .00017859  00000+0  61384-3 0  9996
2 62807  53.1569  71.0806 0001088 293.3400  66.7487 15.30189588 24477
STARLINK-32848          
1 62808U 25018C   25175.00859900  .00016340  00000+0  56245-3 0  9999
2 62808  53.1588  71.1180 0001517  98.8806 261.2367 15.30209422 24479
STARLINK-32787          
1 62809U 25018D   25175.00121348  .00022551  00000+0  77092-3 0  9992
2 62809  53.1583  71.0709 0000890 316.6429  43.4501 15.30211756 24503
STARLINK-32851          
1 62810U 25018E   25175.13711938  .00011427  00000+0  39748-3 0  9994
2 62810  53.1588  70.4985 0001002  76.7975 283.3137 15.30188479 24533
STARLINK-32847          
1 62811U 25018F   25175.18449326  .00013949  00000+0  48222-3 0  9997
2 62811  53.1592  70.0785 0001387  76.1447 283.9708 15.30198775 24537
STARLINK-32837          
1 62812U 25018G   25175.12867599  .00020479  00000+0  70129-3 0  9995
2 62812  53.1615  70.4488 0000465  43.7102 316.3935 15.30216975 24538
STARLINK-32855          
1 62813U 25018H   25175.11601208  .00016043  00000+0  55252-3 0  9990
2 62813  53.1605  70.3628 0000979  95.2053 264.9059 15.30205334 24497
STARLINK-32843          
1 62814U 25018J   25175.08764455  .00015502  00000+0  53468-3 0  9997
2 62814  53.1592  70.9011 0001184  96.0910 264.0225 15.30184111 24489
STARLINK-32845          
1 62815U 25018K   25175.18765754  .00017875  00000+0  61418-3 0  9991
2 62815  53.1589  70.0987 0001324  89.2883 270.8270 15.30200022 24236
STARLINK-32854          
1 62816U 25018L   25175.14557968 -.00013112  00000+0 -43212-3 0  9998
2 62816  53.1585  70.5503 0001369 107.3121 252.8029 15.30141324 24396
STARLINK-32824          
1 62817U 25018M   25174.99382492  .00022153  00000+0  75753-3 0  9997
2 62817  53.1586  71.0197 0001606  88.3916 271.7268 15.30214133 24515
STARLINK-32853          
1 62818U 25018N   25174.98749377  .00020335  00000+0  69661-3 0  9997
2 62818  53.1589  70.9813 0001504  92.0291 268.0882 15.30210096 24477
STARLINK-32856          
1 62819U 25018P   25175.07602325  .00015314  00000+0  52806-3 0  9994
2 62819  53.1591  70.8240 0000852  71.0631 289.0462 15.30202390 24435
STARLINK-32844          
1 62820U 25018Q   25175.14450412  .00019448  00000+0  66694-3 0  9994
2 62820  53.1590  70.5376 0000841  78.6644 281.4451 15.30204289 24521
STARLINK-32782          
1 62821U 25018R   25174.41232419  .00005950  00000+0  21287-3 0  9991
2 62821  53.1592  73.7884 0001532  71.4452 288.6715 15.30196282 23488
STARLINK-32842          
1 62822U 25018S   25175.00754714  .00012832  00000+0  44476-3 0  9997
2 62822  53.1592  71.1077 0001262 324.8524  35.2394 15.30189953 24487
STARLINK-32823          
1 62823U 25018T   25175.18658878  .00045669  00000+0  15423-2 0  9994
2 62823  53.1576  70.0905 0001586  99.5700 260.5480 15.30248184 24503
STARLINK-32852          
1 62824U 25018U   25174.43237584  .00013236  00000+0  45829-3 0  9998
2 62824  53.1590  73.9188 0001244  92.4413 267.6730 15.30193498 23488
STARLINK-32825          
1 62825U 25018V   25174.97891202  .00025968  00000+0  65657-3 0  9997
2 62825  53.1589  69.5063 0001258  80.4912 279.6234 15.39638519 24521
STARLINK-32704          
1 62826U 25018W   25174.41113478  .00019526  00000+0  67713-3 0  9997
2 62826  53.1616  73.7888 0000228  42.6190 317.4828 15.29837562 23470
STARLINK-32838          
1 62827U 25018X   25175.05438965  .00032867  00000+0  82749-3 0  9999
2 62827  53.1581  36.9375 0000648 223.4785 136.6169 15.39642719 24748
STARLINK-32727          
1 62828U 25018Y   25175.00178747  .00011799  00000+0  30438-3 0  9993
2 62828  53.1576  69.6514 0002229 112.2936 247.8306 15.39632708 24522
